OBJECT_NAME,OBJECT_ID,EPOCH,MEAN_MOTION,ECCENTRICITY,INCLINATION,RA_OF_ASC_NODE,ARG_OF_PERICENTER,MEAN_ANOMALY,EPHEMERIS_TYPE,CLASSIFICATION_TYPE,NORAD_CAT_ID,ELEMENT_SET_NO,REV_AT_EPOCH,BSTAR,MEAN_MOTION_DOT,MEAN_MOTION_DDOT
ONEWEB-0633,2023-043AE,2026-06-15T04:27:20.973024,13.15546891,.0001784,87.9011,259.5873,112.3964,247.7355,0,U,56074,999,15614,.28372E-3,.12E-5,0
ONEWEB-0634,2023-043AF,2026-06-15T04:06:50.071968,13.15548649,.0002287,87.9002,259.6308,104.5509,255.5875,0,U,56075,999,15613,.47085E-3,.19E-5,0
ONEWEB-0635,2023-043AG,2026-06-15T03:59:57.741792,13.15550828,.0001941,87.9011,259.5940,92.8189,267.3164,0,U,56076,999,15616,.66864E-3,.265E-5,0
ONEWEB-0636,2023-043AH,2026-06-14T18:40:57.913248,13.15549820,.00019775,87.9006,259.6777,94.7405,265.3951,0,U,56077,999,15609,.28075999E-3,.119E-5,0
ONEWEB-0637,2023-043AJ,2026-06-15T00:00:24.681024,13.15548855,.0002277,87.8998,259.6502,96.9479,263.1910,0,U,56078,999,15614,-.39402E-4,-.2E-7,0
ONEWEB-0647,2023-043AK,2026-06-14T23:53:34.240416,13.15548397,.0001844,87.8999,259.6637,98.0116,262.1223,0,U,56079,999,15613,-.26454E-3,-.87E-6,0
ONEWEB-0651,2023-043AL,2026-06-15T05:15:17.197056,13.15549132,.0002098,87.8999,259.6127,94.3746,265.7624,0,U,56080,999,15736,.78063E-4,.42E-6,0
ONEWEB-0718,2023-043AM,2026-06-14T23:39:50.700672,13.15547469,.0002359,87.8998,259.6399,110.5710,249.5673,0,U,56081,999,15614,-.58134E-3,-.206E-5,0
ONEWEB-0561,2023-068A,2026-06-15T00:01:03.549792,13.20772709,.0001743,87.9193,274.8788,90.3791,269.7543,0,U,56710,999,14921,.18382E-3,.88E-6,0
ONEWEB-0668,2023-068B,2026-06-15T03:34:34.774176,13.16594440,.00026,87.9095,229.1772,100.4637,259.6787,0,U,56711,999,15151,.35493E-3,.149E-5,0
ONEWEB-0676,2023-068C,2026-06-15T03:45:57.753216,13.16593050,.0002047,87.9100,229.1816,88.7584,271.3781,0,U,56712,999,15143,.39664E-3,.164E-5,0
ONEWEB-0677,2023-068D,2026-06-15T01:33:09.490752,13.20769672,.0002285,87.9192,274.8576,93.1423,266.9972,0,U,56713,999,14952,-.24562E-3,-.87E-6,0
ONEWEB-0678,2023-068E,2026-06-15T04:22:48.044064,13.15548941,.0001681,87.9012,259.5923,101.1189,259.0130,0,U,56714,999,14902,.46546E-3,.188E-5,0
ONEWEB-0679,2023-068F,2026-06-15T04:36:07.910208,13.16594907,.0002589,87.9100,229.1662,91.4814,268.6614,0,U,56715,999,15146,.21291E-3,.94E-6,0
ONEWEB-0680,2023-068G,2026-06-14T14:20:58.972128,13.21827852,.00026033,87.9262,244.4859,98.9878,261.1551,0,U,56716,999,15075,-.21994805E-3,-.78E-6,0
ONEWEB-0681,2023-068H,2026-06-15T04:25:09.007392,13.21827364,.0002061,87.9260,244.3707,71.9194,288.2164,0,U,56717,999,15082,.2341E-3,.11E-5,0
ONEWEB-0682,2023-068J,2026-06-14T19:49:25.415040,13.15548646,.00025517,87.9007,259.6641,99.8065,260.3354,0,U,56718,999,14914,-.36401095E-3,-.124E-5,0
ONEWEB-0683,2023-068K,2026-06-15T00:02:41.715744,13.15548550,.0002246,87.9010,259.6288,103.5692,256.5689,0,U,56719,999,14913,.16969E-3,.77E-6,0
ONEWEB-0684,2023-068L,2026-06-15T00:14:05.886240,13.15552199,.0001475,87.9004,259.6172,146.8601,213.2622,0,U,56720,999,14896,-.18289E-2,-.676E-5,0
ONEWEB-0686,2023-068M,2026-06-15T03:39:08.503200,13.16594203,.0002205,87.9089,229.1976,106.6668,253.4705,0,U,56721,999,15144,.20863E-3,.93E-6,0
ONEWEB-0694,2023-068N,2026-06-15T03:48:15.344352,13.16595119,.0002521,87.9110,229.1604,99.4234,260.7182,0,U,56722,999,15150,.48567E-3,.199E-5,0
ONEWEB-0696,2023-068P,2026-06-15T04:41:02.160960,13.15546557,.0001492,87.9003,259.6189,101.5080,258.6218,0,U,56723,999,14910,.95765E-4,.49E-6,0
ONEWEB-0703,2023-068Q,2026-06-14T19:47:08.272320,13.15547924,.00012043,87.9001,259.6739,85.8214,274.3054,0,U,56724,999,14894,-.47589828E-3,-.166E-5,0
ONEWEB-0721,2023-068R,2026-06-15T04:08:45.981024,13.22469489,.0001912,86.6766,86.1591,77.7026,282.4321,0,U,56725,999,15767,.1052E-3,.58E-6,0
ONEWEB-0015,2024-188A,2026-06-15T02:19:27.403680,13.11417861,.0002212,87.8887,21.5095,74.4982,285.6390,0,U,61594,999,8418,-.15483E-2,-.536E-5,0
ONEWEB-0687,2024-188B,2026-06-14T22:51:52.897248,13.17648322,.0002347,87.9129,6.3212,87.7676,272.3724,0,U,61595,999,8560,.86069E-4,.46E-6,0
ONEWEB-0688,2024-188C,2026-06-15T01:22:32.505024,13.17648325,.0002757,87.9128,6.3004,66.3884,293.7537,0,U,61596,999,8561,-.66151E-4,-.13E-6,0
ONEWEB-0689,2024-188D,2026-06-15T03:08:18.095136,13.11417450,.0002055,87.8902,21.4602,91.6501,268.4862,0,U,61597,999,8418,.12804E-2,.467E-5,0
ONEWEB-0690,2024-188E,2026-06-15T03:22:57.279072,13.11414189,.0001267,87.8895,21.4700,70.9895,289.1370,0,U,61598,999,8436,.46389E-3,.177E-5,0
ONEWEB-0691,2024-188F,2026-06-15T03:15:38.617632,13.11415456,.0002156,87.8905,21.3795,79.7304,280.4067,0,U,61599,999,8421,.96575E-3,.355E-5,0
