ONEWEB-0633             
1 56074U 23043AE  26166.18565941  .00000120  00000+0  28372-3 0  9991
2 56074  87.9011 259.5873 0001784 112.3964 247.7355 13.15546891156148
ONEWEB-0634             
1 56075U 23043AF  26166.17141287  .00000190  00000+0  47085-3 0  9993
2 56075  87.9002 259.6308 0002287 104.5509 255.5875 13.15548649156136
ONEWEB-0635             
1 56076U 23043AG  26166.16664053  .00000265  00000+0  66864-3 0  9993
2 56076  87.9011 259.5940 0001941  92.8189 267.3164 13.15550828156164
ONEWEB-0636             
1 56077U 23043AH  26165.77844807  .00000119  00000+0  28076-3 0  9998
2 56077  87.9006 259.6777 0001977  94.7405 265.3951 13.15549820156093
ONEWEB-0637             
1 56078U 23043AJ  26166.00028566 -.00000002  00000+0 -39402-4 0  9991
2 56078  87.8998 259.6502 0002277  96.9479 263.1910 13.15548855156142
ONEWEB-0647             
1 56079U 23043AK  26165.99553519 -.00000087  00000+0 -26454-3 0  9995
2 56079  87.8999 259.6637 0001844  98.0116 262.1223 13.15548397156139
ONEWEB-0651             
1 56080U 23043AL  26166.21894904  .00000042  00000+0  78063-4 0  9992
2 56080  87.8999 259.6127 0002098  94.3746 265.7624 13.15549132157363
ONEWEB-0718             
1 56081U 23043AM  26165.98600348 -.00000206  00000+0 -58134-3 0  9993
2 56081  87.8998 259.6399 0002359 110.5710 249.5673 13.15547469156146
ONEWEB-0561             
1 56710U 23068A   26166.00073553  .00000088  00000+0  18382-3 0  9992
2 56710  87.9193 274.8788 0001743  90.3791 269.7543 13.20772709149217
ONEWEB-0668             
1 56711U 23068B   26166.14901359  .00000149  00000+0  35493-3 0  9992
2 56711  87.9095 229.1772 0002600 100.4637 259.6787 13.16594440151513
ONEWEB-0676             
1 56712U 23068C   26166.15691844  .00000164  00000+0  39664-3 0  9990
2 56712  87.9100 229.1816 0002047  88.7584 271.3781 13.16593050151436
ONEWEB-0677             
1 56713U 23068D   26166.06469318 -.00000087  00000+0 -24562-3 0  9997
2 56713  87.9192 274.8576 0002285  93.1423 266.9972 13.20769672149523
ONEWEB-0678             
1 56714U 23068E   26166.18250051  .00000188  00000+0  46546-3 0  9999
2 56714  87.9012 259.5923 0001681 101.1189 259.0130 13.15548941149021
ONEWEB-0679             
1 56715U 23068F   26166.19175822  .00000094  00000+0  21291-3 0  9999
2 56715  87.9100 229.1662 0002589  91.4814 268.6614 13.16594907151465
ONEWEB-0680             
1 56716U 23068G   26165.59790477 -.00000078  00000+0 -21995-3 0  9997
2 56716  87.9262 244.4859 0002603  98.9878 261.1551 13.21827852150755
ONEWEB-0681             
1 56717U 23068H   26166.18413203  .00000110  00000+0  23410-3 0  9992
2 56717  87.9260 244.3707 0002061  71.9194 288.2164 13.21827364150821
ONEWEB-0682             
1 56718U 23068J   26165.82598860 -.00000124  00000+0 -36401-3 0  9997
2 56718  87.9007 259.6641 0002551  99.8065 260.3354 13.15548646149148
ONEWEB-0683             
1 56719U 23068K   26166.00187171  .00000077  00000+0  16969-3 0  9990
2 56719  87.9010 259.6288 0002246 103.5692 256.5689 13.15548550149131
ONEWEB-0684             
1 56720U 23068L   26166.00979035 -.00000676  00000+0 -18289-2 0  9993
2 56720  87.9004 259.6172 0001475 146.8601 213.2622 13.15552199148962
ONEWEB-0686             
1 56721U 23068M   26166.15218175  .00000093  00000+0  20863-3 0  9994
2 56721  87.9089 229.1976 0002205 106.6668 253.4705 13.16594203151447
ONEWEB-0694             
1 56722U 23068N   26166.15851093  .00000199  00000+0  48567-3 0  9995
2 56722  87.9110 229.1604 0002521  99.4234 260.7182 13.16595119151504
ONEWEB-0696             
1 56723U 23068P   26166.19516390  .00000049  00000+0  95765-4 0  9995
2 56723  87.9003 259.6189 0001492 101.5080 258.6218 13.15546557149102
ONEWEB-0703             
1 56724U 23068Q   26165.82440130 -.00000166  00000+0 -47590-3 0  9997
2 56724  87.9001 259.6739 0001204  85.8214 274.3054 13.15547924148949
ONEWEB-0721             
1 56725U 23068R   26166.17275441  .00000058  00000+0  10520-3 0  9999
2 56725  86.6766  86.1591 0001912  77.7026 282.4321 13.22469489157674
ONEWEB-0015             
1 61594U 24188A   26166.09684495 -.00000536  00000+0 -15483-2 0  9992
2 61594  87.8887  21.5095 0002212  74.4982 285.6390 13.11417861 84183
ONEWEB-0687             
1 61595U 24188B   26165.95269557  .00000046  00000+0  86069-4 0  9999
2 61595  87.9129   6.3212 0002347  87.7676 272.3724 13.17648322 85608
ONEWEB-0688             
1 61596U 24188C   26166.05732066 -.00000013  00000+0 -66151-4 0  9998
2 61596  87.9128   6.3004 0002757  66.3884 293.7537 13.17648325 85619
ONEWEB-0689             
1 61597U 24188D   26166.13076499  .00000467  00000+0  12804-2 0  9994
2 61597  87.8902  21.4602 0002055  91.6501 268.4862 13.11417450 84187
ONEWEB-0690             
1 61598U 24188E   26166.14094073  .00000177  00000+0  46389-3 0  9998
2 61598  87.8895  21.4700 0001267  70.9895 289.1370 13.11414189 84368
ONEWEB-0691             
1 61599U 24188F   26166.13586363  .00000355  00000+0  96575-3 0  9996
2 61599  87.8905  21.3795 0002156  79.7304 280.4067 13.11415456 84213
